1 43013U 17073A   26143.82446642  .00000029  00000+0  34849-4 0  9993
2 43013  98.7765  83.5048 0001118  39.9898 320.1360 14.19506556441017
